CCSDS_OMM_VERS = 2.0
CREATION_DATE  = 
ORIGINATOR     = 

OBJECT_NAME    = CONNECTA IOT-13
OBJECT_ID      = 2026-004AP
CENTER_NAME    = EARTH
REF_FRAME      = TEME
TIME_SYSTEM    = UTC
MEAN_ELEMENT_THEORY = SGP/SGP4

EPOCH          = 2026-01-31T06:07:21.735552
MEAN_MOTION    = 15.18337079
ECCENTRICITY   = .00109939
INCLINATION    = 97.4540
RA_OF_ASC_NODE = 32.3397
ARG_OF_PERICENTER = 101.1649
MEAN_ANOMALY   = 259.0822

EPHEMERIS_TYPE = 0
CLASSIFICATION_TYPE = U
NORAD_CAT_ID   = 67400
ELEMENT_SET_NO = 999
REV_AT_EPOCH   = 298
BSTAR          = .41562423E-3
MEAN_MOTION_DOT = .8481E-4
MEAN_MOTION_DDOT = 0

CCSDS_OMM_VERS = 2.0
CREATION_DATE  = 
ORIGINATOR     = 

OBJECT_NAME    = CONNECTA IOT-14
OBJECT_ID      = 2026-004AQ
CENTER_NAME    = EARTH
REF_FRAME      = TEME
TIME_SYSTEM    = UTC
MEAN_ELEMENT_THEORY = SGP/SGP4

EPOCH          = 2026-01-30T23:45:49.857696
MEAN_MOTION    = 15.18440959
ECCENTRICITY   = .00116799
INCLINATION    = 97.4483
RA_OF_ASC_NODE = 32.0672
ARG_OF_PERICENTER = 97.3258
MEAN_ANOMALY   = 262.9304

EPHEMERIS_TYPE = 0
CLASSIFICATION_TYPE = U
NORAD_CAT_ID   = 67401
ELEMENT_SET_NO = 999
REV_AT_EPOCH   = 294
BSTAR          = .37985017E-3
MEAN_MOTION_DOT = .777E-4
MEAN_MOTION_DDOT = 0

CCSDS_OMM_VERS = 2.0
CREATION_DATE  = 
ORIGINATOR     = 

OBJECT_NAME    = CONNECTA IOT-15
OBJECT_ID      = 2026-004AR
CENTER_NAME    = EARTH
REF_FRAME      = TEME
TIME_SYSTEM    = UTC
MEAN_ELEMENT_THEORY = SGP/SGP4

EPOCH          = 2026-01-31T06:34:46.077888
MEAN_MOTION    = 15.16821465
ECCENTRICITY   = .00048336
INCLINATION    = 97.4542
RA_OF_ASC_NODE = 32.3160
ARG_OF_PERICENTER = 83.8399
MEAN_ANOMALY   = 276.3385

EPHEMERIS_TYPE = 0
CLASSIFICATION_TYPE = U
NORAD_CAT_ID   = 67402
ELEMENT_SET_NO = 999
REV_AT_EPOCH   = 297
BSTAR          = .30385011E-4
MEAN_MOTION_DOT = .531E-5
MEAN_MOTION_DDOT = 0

CCSDS_OMM_VERS = 2.0
CREATION_DATE  = 
ORIGINATOR     = 

OBJECT_NAME    = SHIJIAN-29B (SJ-29B)
OBJECT_ID      = 2025-315C
CENTER_NAME    = EARTH
REF_FRAME      = TEME
TIME_SYSTEM    = UTC
MEAN_ELEMENT_THEORY = SGP/SGP4

EPOCH          = 2026-01-31T01:53:16.205856
MEAN_MOTION    = 1.00271673
ECCENTRICITY   = .00015986
INCLINATION    = 3.0504
RA_OF_ASC_NODE = 98.7081
ARG_OF_PERICENTER = 306.7348
MEAN_ANOMALY   = 186.2722

EPHEMERIS_TYPE = 0
CLASSIFICATION_TYPE = U
NORAD_CAT_ID   = 67403
ELEMENT_SET_NO = 999
REV_AT_EPOCH   = 31
BSTAR          = 0
MEAN_MOTION_DOT = -.76E-6
MEAN_MOTION_DDOT = 0

CCSDS_OMM_VERS = 2.0
CREATION_DATE  = 
ORIGINATOR     = 

OBJECT_NAME    = STARLINK-36484
OBJECT_ID      = 2026-005A
CENTER_NAME    = EARTH
REF_FRAME      = TEME
TIME_SYSTEM    = UTC
MEAN_ELEMENT_THEORY = SGP/SGP4

EPOCH          = 2026-01-31T06:00:02.999808
MEAN_MOTION    = 15.56529458
ECCENTRICITY   = .0001461
INCLINATION    = 43.0001
RA_OF_ASC_NODE = 93.2879
ARG_OF_PERICENTER = 282.8573
MEAN_ANOMALY   = 164.8807

EPHEMERIS_TYPE = 0
CLASSIFICATION_TYPE = U
NORAD_CAT_ID   = 67404
ELEMENT_SET_NO = 999
REV_AT_EPOCH   = 411
BSTAR          = -.31764714E-1
MEAN_MOTION_DOT = -.2064003E-1
MEAN_MOTION_DDOT = 0

CCSDS_OMM_VERS = 2.0
CREATION_DATE  = 
ORIGINATOR     = 

OBJECT_NAME    = STARLINK-36452
OBJECT_ID      = 2026-005B
CENTER_NAME    = EARTH
REF_FRAME      = TEME
TIME_SYSTEM    = UTC
MEAN_ELEMENT_THEORY = SGP/SGP4

EPOCH          = 2026-01-31T06:00:02.999808
MEAN_MOTION    = 15.56531587
ECCENTRICITY   = .00013419
INCLINATION    = 43.0008
RA_OF_ASC_NODE = 93.2830
ARG_OF_PERICENTER = 281.8600
MEAN_ANOMALY   = 167.7971

EPHEMERIS_TYPE = 0
CLASSIFICATION_TYPE = U
NORAD_CAT_ID   = 67405
ELEMENT_SET_NO = 999
REV_AT_EPOCH   = 411
BSTAR          = -.31878761E-1
MEAN_MOTION_DOT = -.2070681E-1
MEAN_MOTION_DDOT = 0

CCSDS_OMM_VERS = 2.0
CREATION_DATE  = 
ORIGINATOR     = 

OBJECT_NAME    = STARLINK-36409
OBJECT_ID      = 2026-005C
CENTER_NAME    = EARTH
REF_FRAME      = TEME
TIME_SYSTEM    = UTC
MEAN_ELEMENT_THEORY = SGP/SGP4

EPOCH          = 2026-01-31T06:00:02.999808
MEAN_MOTION    = 15.56530751
ECCENTRICITY   = .0001321
INCLINATION    = 43.0003
RA_OF_ASC_NODE = 93.2784
ARG_OF_PERICENTER = 279.7696
MEAN_ANOMALY   = 171.8006

EPHEMERIS_TYPE = 0
CLASSIFICATION_TYPE = U
NORAD_CAT_ID   = 67406
ELEMENT_SET_NO = 999
REV_AT_EPOCH   = 416
BSTAR          = -.31741216E-1
MEAN_MOTION_DOT = -.206264E-1
MEAN_MOTION_DDOT = 0

CCSDS_OMM_VERS = 2.0
CREATION_DATE  = 
ORIGINATOR     = 

OBJECT_NAME    = STARLINK-36510
OBJECT_ID      = 2026-005D
CENTER_NAME    = EARTH
REF_FRAME      = TEME
TIME_SYSTEM    = UTC
MEAN_ELEMENT_THEORY = SGP/SGP4

EPOCH          = 2026-01-31T06:00:02.999808
MEAN_MOTION    = 15.56529111
ECCENTRICITY   = .00012803
INCLINATION    = 43.0002
RA_OF_ASC_NODE = 93.2735
ARG_OF_PERICENTER = 277.4051
MEAN_ANOMALY   = 176.0852

EPHEMERIS_TYPE = 0
CLASSIFICATION_TYPE = U
NORAD_CAT_ID   = 67407
ELEMENT_SET_NO = 999
REV_AT_EPOCH   = 416
BSTAR          = -.3173961E-1
MEAN_MOTION_DOT = -.2062407E-1
MEAN_MOTION_DDOT = 0

CCSDS_OMM_VERS = 2.0
CREATION_DATE  = 
ORIGINATOR     = 

OBJECT_NAME    = STARLINK-36509
OBJECT_ID      = 2026-005E
CENTER_NAME    = EARTH
REF_FRAME      = TEME
TIME_SYSTEM    = UTC
MEAN_ELEMENT_THEORY = SGP/SGP4

EPOCH          = 2026-01-31T06:00:02.999808
MEAN_MOTION    = 15.56527958
ECCENTRICITY   = .00014793
INCLINATION    = 43.0008
RA_OF_ASC_NODE = 93.2682
ARG_OF_PERICENTER = 279.1411
MEAN_ANOMALY   = 176.2678

EPHEMERIS_TYPE = 0
CLASSIFICATION_TYPE = U
NORAD_CAT_ID   = 67408
ELEMENT_SET_NO = 999
REV_AT_EPOCH   = 416
BSTAR          = -.31759977E-1
MEAN_MOTION_DOT = -.2063636E-1
MEAN_MOTION_DDOT = 0

CCSDS_OMM_VERS = 2.0
CREATION_DATE  = 
ORIGINATOR     = 

OBJECT_NAME    = STARLINK-36507
OBJECT_ID      = 2026-005F
CENTER_NAME    = EARTH
REF_FRAME      = TEME
TIME_SYSTEM    = UTC
MEAN_ELEMENT_THEORY = SGP/SGP4

EPOCH          = 2026-01-31T06:00:02.999808
MEAN_MOTION    = 15.56530986
ECCENTRICITY   = .00013929
INCLINATION    = 43.0004
RA_OF_ASC_NODE = 93.2636
ARG_OF_PERICENTER = 277.3104
MEAN_ANOMALY   = 180.0144

EPHEMERIS_TYPE = 0
CLASSIFICATION_TYPE = U
NORAD_CAT_ID   = 67409
ELEMENT_SET_NO = 999
REV_AT_EPOCH   = 416
BSTAR          = -.31797949E-1
MEAN_MOTION_DOT = -.2065991E-1
MEAN_MOTION_DDOT = 0

CCSDS_OMM_VERS = 2.0
CREATION_DATE  = 
ORIGINATOR     = 

OBJECT_NAME    = STARLINK-36508
OBJECT_ID      = 2026-005G
CENTER_NAME    = EARTH
REF_FRAME      = TEME
TIME_SYSTEM    = UTC
MEAN_ELEMENT_THEORY = SGP/SGP4

EPOCH          = 2026-01-31T06:00:02.999808
MEAN_MOTION    = 15.56525080
ECCENTRICITY   = .00012798
INCLINATION    = 43.0006
RA_OF_ASC_NODE = 93.2588
ARG_OF_PERICENTER = 279.9498
MEAN_ANOMALY   = 179.2925

EPHEMERIS_TYPE = 0
CLASSIFICATION_TYPE = U
NORAD_CAT_ID   = 67410
ELEMENT_SET_NO = 999
REV_AT_EPOCH   = 416
BSTAR          = -.31604988E-1
MEAN_MOTION_DOT = -.205432E-1
MEAN_MOTION_DDOT = 0

CCSDS_OMM_VERS = 2.0
CREATION_DATE  = 
ORIGINATOR     = 

OBJECT_NAME    = STARLINK-36503
OBJECT_ID      = 2026-005H
CENTER_NAME    = EARTH
REF_FRAME      = TEME
TIME_SYSTEM    = UTC
MEAN_ELEMENT_THEORY = SGP/SGP4

EPOCH          = 2026-01-31T06:00:02.999808
MEAN_MOTION    = 15.56534105
ECCENTRICITY   = .00014237
INCLINATION    = 43.0008
RA_OF_ASC_NODE = 93.2537
ARG_OF_PERICENTER = 278.9808
MEAN_ANOMALY   = 182.1737

EPHEMERIS_TYPE = 0
CLASSIFICATION_TYPE = U
NORAD_CAT_ID   = 67411
ELEMENT_SET_NO = 999
REV_AT_EPOCH   = 390
BSTAR          = -.31822125E-1
MEAN_MOTION_DOT = -.2067628E-1
MEAN_MOTION_DDOT = 0

