CONNECTA IOT-13         
1 67400U 26004AP  26031.25511268  .00008481  00000+0  41562-3 0  9992
2 67400  97.4540  32.3397 0010993 101.1649 259.0822 15.18337079  2980
CONNECTA IOT-14         
1 67401U 26004AQ  26030.99016039  .00007770  00000+0  37985-3 0  9993
2 67401  97.4483  32.0672 0011679  97.3258 262.9304 15.18440959  2940
CONNECTA IOT-15         
1 67402U 26004AR  26031.27414442  .00000531  00000+0  30385-4 0  9992
2 67402  97.4542  32.3160 0004833  83.8399 276.3385 15.16821465  2976
SHIJIAN-29B (SJ-29B)    
1 67403U 25315C   26031.07865979 -.00000076  00000+0  00000+0 0  9991
2 67403   3.0504  98.7081 0001598 306.7348 186.2722  1.00271673   310
STARLINK-36484          
1 67404U 26005A   26031.25003472 -.02064003  00000+0 -31765-1 0  9998
2 67404  43.0001  93.2879 0001461 282.8573 164.8807 15.56529458  4116
STARLINK-36452          
1 67405U 26005B   26031.25003472 -.02070681  00000+0 -31879-1 0  9994
2 67405  43.0008  93.2830 0001341 281.8600 167.7971 15.56531587  4118
STARLINK-36409          
1 67406U 26005C   26031.25003472 -.02062640  00000+0 -31741-1 0  9999
2 67406  43.0003  93.2784 0001321 279.7696 171.8006 15.56530751  4163
STARLINK-36510          
1 67407U 26005D   26031.25003472 -.02062407  00000+0 -31740-1 0  9990
2 67407  43.0002  93.2735 0001280 277.4051 176.0852 15.56529111  4167
STARLINK-36509          
1 67408U 26005E   26031.25003472 -.02063636  00000+0 -31760-1 0  9998
2 67408  43.0008  93.2682 0001479 279.1411 176.2678 15.56527958  4169
STARLINK-36507          
1 67409U 26005F   26031.25003472 -.02065991  00000+0 -31798-1 0  9996
2 67409  43.0004  93.2636 0001392 277.3104 180.0144 15.56530986  4164
STARLINK-36508          
1 67410U 26005G   26031.25003472 -.02054320  00000+0 -31605-1 0  9999
2 67410  43.0006  93.2588 0001279 279.9498 179.2925 15.56525080  4168
STARLINK-36503          
1 67411U 26005H   26031.25003472 -.02067628  00000+0 -31822-1 0  9996
2 67411  43.0008  93.2537 0001423 278.9808 182.1737 15.56534105  3903
